CTC2_L_00206016-03
1 10062U 22422XH  26075.70042824  .00000000  00000+0  00000-0 0  9997
2 10062  85.0000 180.0000 0000000   0.0000   0.0000 14.42576008    11
CTC2_L_00206016-04
1 10063U 23376YS  26075.70042824  .00000000  00000+0  00000-0 0  9997
2 10063  85.0000 180.0000 0000000   0.0000  90.0000 14.42576008    11
CTC2_L_00206017-01
1 10064U 22287YW  26075.70042824  .00000000  00000+0  00000-0 0  9998
2 10064  85.0000 192.0000 0000000   0.0000 192.0000 14.42576008    18
CTC2_L_00206017-02
1 10065U 23295IA  26075.70042824  .00000000  00000+0  00000-0 0  9999
2 10065  85.0000 192.0000 0000000   0.0000 282.0000 14.42576008    19
CTC2_L_00206017-03
1 10066U 26873WS  26075.70042824  .00000000  00000+0  00000-0 0  9995
2 10066  85.0000 192.0000 0000000   0.0000  12.0000 14.42576008    11
CTC2_L_00206017-04
1 10067U 25799PA  26075.70042824  .00000000  00000+0  00000-0 0  9992
2 10067  85.0000 192.0000 0000000   0.0000 102.0000 14.42576008    12
CTC2_L_00206018-01
1 10068U 25185CZ  26075.70042824  .00000000  00000+0  00000-0 0  9992
2 10068  85.0000 204.0000 0000000   0.0000 204.0000 14.42576008    10
CTC2_L_00206018-02
1 10069U 26391VH  26075.70042824  .00000000  00000+0  00000-0 0  9993
2 10069  85.0000 204.0000 0000000   0.0000 294.0000 14.42576008    10
CTC2_L_00206018-03
1 10070U 25090JI  26075.70042824  .00000000  00000+0  00000-0 0  9990
2 10070  85.0000 204.0000 0000000   0.0000  24.0000 14.42576008    13
CTC2_L_00206018-04
1 10071U 26850Z   26075.70042824  .00000000  00000+0  00000-0 0  9996
2 10071  85.0000 204.0000 0000000   0.0000 114.0000 14.42576008    14
CTC2_L_00206019-01
1 10072U 23788UB  26075.70042824  .00000000  00000+0  00000-0 0  9994
2 10072  85.0000 216.0000 0000000   0.0000 216.0000 14.42576008    11
CTC2_L_00206019-02
1 10073U 23582VV  26075.70042824  .00000000  00000+0  00000-0 0  9997
2 10073  85.0000 216.0000 0000000   0.0000 306.0000 14.42576008    12
CTC2_L_00206019-03
1 10074U 26309AQ  26075.70042824  .00000000  00000+0  00000-0 0  9998
2 10074  85.0000 216.0000 0000000   0.0000  36.0000 14.42576008    13
CTC2_L_00206019-04
1 10075U 26203DS  26075.70042824  .00000000  00000+0  00000-0 0  9992
2 10075  85.0000 216.0000 0000000   0.0000 126.0000 14.42576008    14
CTC2_L_00206020-01
1 10076U 23301R   26075.70042824  .00000000  00000+0  00000-0 0  9999
2 10076  85.0000 228.0000 0000000   0.0000 228.0000 14.42576008    11
CTC2_L_00206020-02
1 10077U 26861PV  26075.70042824  .00000000  00000+0  00000-0 0  9994
2 10077  85.0000 228.0000 0000000   0.0000 318.0000 14.42576008    12
CTC2_L_00206020-03
1 10078U 23006AK  26075.70042824  .00000000  00000+0  00000-0 0  9993
2 10078  85.0000 228.0000 0000000   0.0000  48.0000 14.42576008    13
CTC2_L_00206020-04
1 10079U 23660MZ  26075.70042824  .00000000  00000+0  00000-0 0  9990
2 10079  85.0000 228.0000 0000000   0.0000 138.0000 14.42576008    14
CTC2_L_00206021-01
1 10080U 23470DH  26075.70042824  .00000000  00000+0  00000-0 0  9991
2 10080  85.0000 240.0000 0000000   0.0000 240.0000 14.42576008    14
CTC2_L_00206021-02
1 10081U 22164CQ  26075.70042824  .00000000  00000+0  00000-0 0  9991
2 10081  85.0000 240.0000 0000000   0.0000 330.0000 14.42576008    15
CTC2_L_00206021-03
1 10082U 23220IU  26075.70042824  .00000000  00000+0  00000-0 0  9996
2 10082  85.0000 240.0000 0000000   0.0000  60.0000 14.42576008    16
CTC2_L_00206021-04
1 10083U 24876YJ  26075.70042824  .00000000  00000+0  00000-0 0  9995
2 10083  85.0000 240.0000 0000000   0.0000 150.0000 14.42576008    17
CTC2_L_00206022-01
1 10084U 26075IS  26075.70042824  .00000000  00000+0  00000-0 0  9999
2 10084  85.0000 252.0000 0000000   0.0000 252.0000 14.42576008    14
CTC2_L_00206022-02
1 10085U 22641WC  26075.70042824  .00000000  00000+0  00000-0 0  9995
2 10085  85.0000 252.0000 0000000   0.0000 342.0000 14.42576008    15
CTC2_L_00206022-03
1 10086U 24886CX  26075.70042824  .00000000  00000+0  00000-0 0  9999
2 10086  85.0000 252.0000 0000000   0.0000  72.0000 14.42576008    16
CTC2_L_00206022-04
1 10087U 26568ZU  26075.70042824  .00000000  00000+0  00000-0 0  9999
2 10087  85.0000 252.0000 0000000   0.0000 162.0000 14.42576008    17
CTC2_L_00206023-01
1 10088U 23632NO  26075.70042824  .00000000  00000+0  00000-0 0  9999
2 10088  85.0000 264.0000 0000000   0.0000 264.0000 14.42576008    14
CTC2_L_00206023-02
1 10089U 22844SS  26075.70042824  .00000000  00000+0  00000-0 0  9994
2 10089  85.0000 264.0000 0000000   0.0000 354.0000 14.42576008    15
CTC2_L_00206023-03
1 10090U 22396JY  26075.70042824  .00000000  00000+0  00000-0 0  9998
2 10090  85.0000 264.0000 0000000   0.0000  84.0000 14.42576008    17
CTC2_L_00206023-04
1 10091U 23575BF  26075.70042824  .00000000  00000+0  00000-0 0  9999
2 10091  85.0000 264.0000 0000000   0.0000 174.0000 14.42576008    18
CTC2_L_00206024-01
1 10092U 25250BQ  26075.70042824  .00000000  00000+0  00000-0 0  9992
2 10092  85.0000 276.0000 0000000   0.0000 276.0000 14.42576008    15
CTC2_L_00206024-02
1 10093U 22611PV  26075.70042824  .00000000  00000+0  00000-0 0  9991
2 10093  85.0000 276.0000 0000000   0.0000   6.0000 14.42576008    17
CTC2_L_00206024-03
1 10094U 24310DW  26075.70042824  .00000000  00000+0  00000-0 0  9990
2 10094  85.0000 276.0000 0000000   0.0000  96.0000 14.42576008    17
CTC2_L_00206024-04
1 10095U 23284XK  26075.70042824  .00000000  00000+0  00000-0 0  9990
2 10095  85.0000 276.0000 0000000   0.0000 186.0000 14.42576008    18
CTC2_L_00206025-01
1 10096U 23125ZL  26075.70042824  .00000000  00000+0  00000-0 0  9995
2 10096  85.0000 288.0000 0000000   0.0000 288.0000 14.42576008    15
CTC2_L_00206025-02
1 10097U 24801MD  26075.70042824  .00000000  00000+0  00000-0 0  9998
2 10097  85.0000 288.0000 0000000   0.0000  18.0000 14.42576008    17
CTC2_L_00206025-03
1 10098U 24478EY  26075.70042824  .00000000  00000+0  00000-0 0  9999
2 10098  85.0000 288.0000 0000000   0.0000 108.0000 14.42576008    18
CTC2_L_00206025-04
1 10099U 25536LK  26075.70042824  .00000000  00000+0  00000-0 0  9996
2 10099  85.0000 288.0000 0000000   0.0000 198.0000 14.42576008    18
CTC2_L_00206026-01
1 10100U 24861MQ  26075.70042824  .00000000  00000+0  00000-0 0  9999
2 10100  85.0000 300.0000 0000000   0.0000 300.0000 14.42576008    11
CTC2_L_00206026-02
1 10101U 22579HA  26075.70042824  .00000000  00000+0  00000-0 0  9994
2 10101  85.0000 300.0000 0000000   0.0000  30.0000 14.42576008    12
CTC2_L_00206026-03
1 10102U 25383EG  26075.70042824  .00000000  00000+0  00000-0 0  9991
2 10102  85.0000 300.0000 0000000   0.0000 120.0000 14.42576008    13
CTC2_L_00206026-04
1 10103U 26824EQ  26075.70042824  .00000000  00000+0  00000-0 0  9993
2 10103  85.0000 300.0000 0000000   0.0000 210.0000 14.42576008    14
CTC2_L_00206027-01
1 10104U 24159ZE  26075.70042824  .00000000  00000+0  00000-0 0  9993
2 10104  85.0000 312.0000 0000000   0.0000 312.0000 14.42576008    11
CTC2_L_00206027-02
1 10105U 26836DC  26075.70042824  .00000000  00000+0  00000-0 0  9998
2 10105  85.0000 312.0000 0000000   0.0000  42.0000 14.42576008    12
CTC2_L_00206027-03
1 10106U 22514AT  26075.70042824  .00000000  00000+0  00000-0 0  9998
2 10106  85.0000 312.0000 0000000   0.0000 132.0000 14.42576008    13
CTC2_L_00206027-04
1 10107U 22978GA  26075.70042824  .00000000  00000+0  00000-0 0  9993
2 10107  85.0000 312.0000 0000000   0.0000 222.0000 14.42576008    14
CTC2_L_00206028-01
1 10108U 26961OA  26075.70042824  .00000000  00000+0  00000-0 0  9990
2 10108  85.0000 324.0000 0000000   0.0000 324.0000 14.42576008    11
CTC2_L_00206028-02
1 10109U 23524EB  26075.70042824  .00000000  00000+0  00000-0 0  9993
2 10109  85.0000 324.0000 0000000   0.0000  54.0000 14.42576008    12
CTC2_L_00206028-03
1 10110U 25833UI  26075.70042824  .00000000  00000+0  00000-0 0  9990
2 10110  85.0000 324.0000 0000000   0.0000 144.0000 14.42576008    14
CTC2_L_00206028-04
1 10111U 22194ST  26075.70042824  .00000000  00000+0  00000-0 0  9998
2 10111  85.0000 324.0000 0000000   0.0000 234.0000 14.42576008    15
CTC2_L_00206029-01
1 10112U 22305UQ  26075.70042824  .00000000  00000+0  00000-0 0  9993
2 10112  85.0000 336.0000 0000000   0.0000 336.0000 14.42576008    12
CTC2_L_00206029-02
1 10113U 25057Q   26075.70042824  .00000000  00000+0  00000-0 0  9991
2 10113  85.0000 336.0000 0000000   0.0000  66.0000 14.42576008    13
CTC2_L_00206029-03
1 10114U 22046TO  26075.70042824  .00000000  00000+0  00000-0 0  9997
2 10114  85.0000 336.0000 0000000   0.0000 156.0000 14.42576008    14
CTC2_L_00206029-04
1 10115U 25380XI  26075.70042824  .00000000  00000+0  00000-0 0  9992
2 10115  85.0000 336.0000 0000000   0.0000 246.0000 14.42576008    15
CTC2_L_00206030-01
1 10116U 25842TE  26075.70042824  .00000000  00000+0  00000-0 0  9996
2 10116  85.0000 348.0000 0000000   0.0000 348.0000 14.42576008    12
CTC2_L_00206030-02
1 10117U 25577LQ  26075.70042824  .00000000  00000+0  00000-0 0  9992
2 10117  85.0000 348.0000 0000000   0.0000  78.0000 14.42576008    13
CTC2_L_00206030-03
1 10118U 26323XG  26075.70042824  .00000000  00000+0  00000-0 0  9993
2 10118  85.0000 348.0000 0000000   0.0000 168.0000 14.42576008    14
CTC2_L_00206030-04
1 10119U 22492AQ  26075.70042824  .00000000  00000+0  00000-0 0  9997
2 10119  85.0000 348.0000 0000000   0.0000 258.0000 14.42576008    15
